{
  "type": "FeatureCollection",
  "features": [
    {
      "type": "Feature",
      "properties": {
        "norad_id": 66461,
        "name": "STARLINK-35132",
        "group": "last-30-days",
        "lat": 11.082501561289206,
        "lon": -131.45387675926406,
        "alt_km": 442.90634145211425,
        "timestamp": "2025-12-14T14:39:28.130760+00:00",
        "meta_object_name": "STARLINK-35132",
        "meta_object_id": "2025-262F",
        "meta_epoch": "2025-12-13T14:36:50.743296",
        "meta_mean_motion": 15.4073966,
        "meta_eccentricity": 0.0003855,
        "meta_inclination": 43.008,
        "meta_ra_of_asc_node": 66.4512,
        "meta_arg_of_pericenter": 270.6345,
        "meta_mean_anomaly": 89.407,
        "meta_ephemeris_type": 0,
        "meta_classification_type": "U",
        "meta_norad_cat_id": 66461,
        "meta_element_set_no": 999,
        "meta_rev_at_epoch": 569,
        "meta_bstar": 0.0011620266,
        "meta_mean_motion_dot": 0.00048619,
        "meta_mean_motion_ddot": 0,
        "tle_line1": "1 66461U 25262F   25347.60892064  .00048619  00000+0  11620-2 0  9995",
        "tle_line2": "2 66461  43.0080  66.4512 0003855 270.6345  89.4070 15.40739660  5691"
      },
      "geometry": {
        "type": "Point",
        "coordinates": [
          -131.45387675926406,
          11.082501561289206
        ]
      }
    },
    {
      "type": "Feature",
      "properties": {
        "norad_id": 66462,
        "name": "STARLINK-35499",
        "group": "last-30-days",
        "lat": 2.664071850180089,
        "lon": -122.21614221392903,
        "alt_km": 443.4685758792293,
        "timestamp": "2025-12-14T14:39:28.130771+00:00",
        "meta_object_name": "STARLINK-35499",
        "meta_object_id": "2025-262G",
        "meta_epoch": "2025-12-13T13:00:16.774848",
        "meta_mean_motion": 15.40716698,
        "meta_eccentricity": 0.00026717,
        "meta_inclination": 43.0034,
        "meta_ra_of_asc_node": 66.8072,
        "meta_arg_of_pericenter": 275.5949,
        "meta_mean_anomaly": 84.4603,
        "meta_ephemeris_type": 0,
        "meta_classification_type": "U",
        "meta_norad_cat_id": 66462,
        "meta_element_set_no": 999,
        "meta_rev_at_epoch": 568,
        "meta_bstar": 0.0017330173,
        "meta_mean_motion_dot": 0.00072827,
        "meta_mean_motion_ddot": 0,
        "tle_line1": "1 66462U 25262G   25347.54186082  .00072827  00000+0  17330-2 0  9997",
        "tle_line2": "2 66462  43.0034  66.8072 0002671 275.5949  84.4603 15.40716698  5687"
      },
      "geometry": {
        "type": "Point",
        "coordinates": [
          -122.21614221392903,
          2.664071850180089
        ]
      }
    },
    {
      "type": "Feature",
      "properties": {
        "norad_id": 66463,
        "name": "STARLINK-35463",
        "group": "last-30-days",
        "lat": -13.814473423206753,
        "lon": -104.11400293472524,
        "alt_km": 445.03169445178355,
        "timestamp": "2025-12-14T14:39:28.130783+00:00",
        "meta_object_name": "STARLINK-35463",
        "meta_object_id": "2025-262H",
        "meta_epoch": "2025-12-13T22:00:00.999936",
        "meta_mean_motion": 15.40673053,
        "meta_eccentricity": 0.00016576,
        "meta_inclination": 43.0009,
        "meta_ra_of_asc_node": 64.5868,
        "meta_arg_of_pericenter": 261.0704,
        "meta_mean_anomaly": 45.2231,
        "meta_ephemeris_type": 0,
        "meta_classification_type": "U",
        "meta_norad_cat_id": 66463,
        "meta_element_set_no": 999,
        "meta_rev_at_epoch": 582,
        "meta_bstar": -4.5415386e-05,
        "meta_mean_motion_dot": -2.198e-05,
        "meta_mean_motion_ddot": 0,
        "tle_line1": "1 66463U 25262H   25347.91667824 -.00002198  00000+0 -45415-4 0  9990",
        "tle_line2": "2 66463  43.0009  64.5868 0001657 261.0704  45.2231 15.40673053  5825"
      },
      "geometry": {
        "type": "Point",
        "coordinates": [
          -104.11400293472524,
          -13.814473423206753
        ]
      }
    },
    {
      "type": "Feature",
      "properties": {
        "norad_id": 66464,
        "name": "STARLINK-35435",
        "group": "last-30-days",
        "lat": -5.475512306579132,
        "lon": -113.47843998285988,
        "alt_km": 444.63235137678294,
        "timestamp": "2025-12-14T14:39:28.130797+00:00",
        "meta_object_name": "STARLINK-35435",
        "meta_object_id": "2025-262J",
        "meta_epoch": "2025-12-13T22:00:00.999936",
        "meta_mean_motion": 15.40667071,
        "meta_eccentricity": 0.00015812,
        "meta_inclination": 43.0009,
        "meta_ra_of_asc_node": 64.6177,
        "meta_arg_of_pericenter": 274.3704,
        "meta_mean_anomaly": 19.4826,
        "meta_ephemeris_type": 0,
        "meta_classification_type": "U",
        "meta_norad_cat_id": 66464,
        "meta_element_set_no": 999,
        "meta_rev_at_epoch": 582,
        "meta_bstar": -9.3289355e-05,
        "meta_mean_motion_dot": -4.194e-05,
        "meta_mean_motion_ddot": 0,
        "tle_line1": "1 66464U 25262J   25347.91667824 -.00004194  00000+0 -93289-4 0  9991",
        "tle_line2": "2 66464  43.0009  64.6177 0001581 274.3704  19.4826 15.40667071  5829"
      },
      "geometry": {
        "type": "Point",
        "coordinates": [
          -113.47843998285988,
          -5.475512306579132
        ]
      }
    },
    {
      "type": "Feature",
      "properties": {
        "norad_id": 66465,
        "name": "STARLINK-35448",
        "group": "last-30-days",
        "lat": -29.01382983194149,
        "lon": -82.94847639869026,
        "alt_km": 446.11204512885615,
        "timestamp": "2025-12-14T14:39:28.130808+00:00",
        "meta_object_name": "STARLINK-35448",
        "meta_object_id": "2025-262K",
        "meta_epoch": "2025-12-13T22:00:00.999936",
        "meta_mean_motion": 15.40648257,
        "meta_eccentricity": 0.00014594,
        "meta_inclination": 43.0007,
        "meta_ra_of_asc_node": 64.5271,
        "meta_arg_of_pericenter": 271.1136,
        "meta_mean_anomaly": 60.0638,
        "meta_ephemeris_type": 0,
        "meta_classification_type": "U",
        "meta_norad_cat_id": 66465,
        "meta_element_set_no": 999,
        "meta_rev_at_epoch": 582,
        "meta_bstar": 0.00053992063,
        "meta_mean_motion_dot": 0.00022277,
        "meta_mean_motion_ddot": 0,
        "tle_line1": "1 66465U 25262K   25347.91667824  .00022277  00000+0  53992-3 0  9998",
        "tle_line2": "2 66465  43.0007  64.5271 0001459 271.1136  60.0638 15.40648257  5828"
      },
      "geometry": {
        "type": "Point",
        "coordinates": [
          -82.94847639869026,
          -29.01382983194149
        ]
      }
    },
    {
      "type": "Feature",
      "properties": {
        "norad_id": 66466,
        "name": "STARLINK-35388",
        "group": "last-30-days",
        "lat": -35.214486756545035,
        "lon": -70.26889159847647,
        "alt_km": 446.2631538643345,
        "timestamp": "2025-12-14T14:39:28.130819+00:00",
        "meta_object_name": "STARLINK-35388",
        "meta_object_id": "2025-262L",
        "meta_epoch": "2025-12-13T22:00:00.999936",
        "meta_mean_motion": 15.40640664,
        "meta_eccentricity": 0.0001652,
        "meta_inclination": 43.0005,
        "meta_ra_of_asc_node": 64.4956,
        "meta_arg_of_pericenter": 271.6452,
        "meta_mean_anomaly": 71.9752,
        "meta_ephemeris_type": 0,
        "meta_classification_type": "U",
        "meta_norad_cat_id": 66466,
        "meta_element_set_no": 999,
        "meta_rev_at_epoch": 582,
        "meta_bstar": 0.00051799084,
        "meta_mean_motion_dot": 0.00021352,
        "meta_mean_motion_ddot": 0,
        "tle_line1": "1 66466U 25262L   25347.91667824  .00021352  00000+0  51799-3 0  9995",
        "tle_line2": "2 66466  43.0005  64.4956 0001652 271.6452  71.9752 15.40640664  5829"
      },
      "geometry": {
        "type": "Point",
        "coordinates": [
          -70.26889159847647,
          -35.214486756545035
        ]
      }
    },
    {
      "type": "Feature",
      "properties": {
        "norad_id": 66467,
        "name": "STARLINK-35682",
        "group": "last-30-days",
        "lat": -21.74304541946127,
        "lon": -94.10423500926116,
        "alt_km": 445.594348254107,
        "timestamp": "2025-12-14T14:39:28.130832+00:00",
        "meta_object_name": "STARLINK-35682",
        "meta_object_id": "2025-262M",
        "meta_epoch": "2025-12-13T22:00:00.999936",
        "meta_mean_motion": 15.40660572,
        "meta_eccentricity": 0.00016741,
        "meta_inclination": 43.0008,
        "meta_ra_of_asc_node": 64.5571,
        "meta_arg_of_pericenter": 263.5203,
        "meta_mean_anomaly": 55.2119,
        "meta_ephemeris_type": 0,
        "meta_classification_type": "U",
        "meta_norad_cat_id": 66467,
        "meta_element_set_no": 999,
        "meta_rev_at_epoch": 582,
        "meta_bstar": 9.1707722e-05,
        "meta_mean_motion_dot": 3.524e-05,
        "meta_mean_motion_ddot": 0,
        "tle_line1": "1 66467U 25262M   25347.91667824  .00003524  00000+0  91708-4 0  9992",
        "tle_line2": "2 66467  43.0008  64.5571 0001674 263.5203  55.2119 15.40660572  5827"
      },
      "geometry": {
        "type": "Point",
        "coordinates": [
          -94.10423500926116,
          -21.74304541946127
        ]
      }
    }
  ]
}